{
    "links": {
        "self": "http://www.neowsapp.com/rest/v1/neo/3765705?api_key=iIulBulltgU6a56xZRHN4H3l9WmuAYTsLGpBGhQ2"
    },
    "id": "3765705",
    "neo_reference_id": "3765705",
    "name": "(2016 XC18)",
    "designation": "2016 XC18",
    "nasa_jpl_url": "http://ssd.jpl.nasa.gov/sbdb.cgi?sstr=3765705",
    "absolute_magnitude_h": 21.9,
    "estimated_diameter": {
        "kilometers": {
            "estimated_diameter_min": 0.1108038821,
            "estimated_diameter_max": 0.2477650126
        },
        "meters": {
            "estimated_diameter_min": 110.8038821264,
            "estimated_diameter_max": 247.7650126055
        },
        "miles": {
            "estimated_diameter_min": 0.068850319,
            "estimated_diameter_max": 0.1539539936
        },
        "feet": {
            "estimated_diameter_min": 363.5298086356,
            "estimated_diameter_max": 812.8773639568
        }
    },
    "is_potentially_hazardous_asteroid": true,
    "close_approach_data": [
        {
            "close_approach_date": "2013-12-18",
            "close_approach_date_full": "2013-Dec-18 02:24",
            "epoch_date_close_approach": 1387333440000,
            "relative_velocity": {
                "kilometers_per_second": "33.1484344006",
                "kilometers_per_hour": "119334.3638422219",
                "miles_per_hour": "74149.7329107406"
            },
            "miss_distance": {
                "astronomical": "0.4675389322",
                "lunar": "181.8726446258",
                "kilometers": "69942828.399194414",
                "miles": "43460458.2790303532"
            },
            "orbiting_body": "Earth"
        },
        {
            "close_approach_date": "2016-11-26",
            "close_approach_date_full": "2016-Nov-26 17:34",
            "epoch_date_close_approach": 1480181640000,
            "relative_velocity": {
                "kilometers_per_second": "20.5627401501",
                "kilometers_per_hour": "74025.8645404878",
                "miles_per_hour": "45996.7934418381"
            },
            "miss_distance": {
                "astronomical": "0.0420316716",
                "lunar": "16.3503202524",
                "kilometers": "6287848.543899492",
                "miles": "3907087.9111053096"
            },
            "orbiting_body": "Earth"
        }
    ],
    "orbital_data": {
        "orbit_id": "8",
        "orbit_determination_date": "2017-04-06 08:21:35",
        "first_observation_date": "2016-12-06",
        "last_observation_date": "2016-12-18",
        "data_arc_in_days": 12,
        "observations_used": 101,
        "orbit_uncertainty": "8",
        "minimum_orbit_intersection": ".00712324",
        "jupiter_tisserand_invariant": "3.460",
        "epoch_osculation": "2457733.5",
        "eccentricity": ".6695656180205319",
        "semi_major_axis": "2.049117694204658",
        "inclination": "8.928941651173629",
        "ascending_node_longitude": "64.68347695627266",
        "orbital_period": "1071.392944580351",
        "perihelion_distance": ".6770989388877087",
        "perihelion_argument": "279.7393163949504",
        "aphelion_distance": "3.421136449521607",
        "perihelion_time": "2457674.292098053330",
        "mean_anomaly": "19.8945165810756",
        "mean_motion": ".3360111729511219",
        "equinox": "J2000",
        "orbit_class": {
            "orbit_class_type": "APO",
            "orbit_class_description": "Near-Earth asteroid orbits which cross the Earth’s orbit similar to that of 1862 Apollo",
            "orbit_class_range": "a (semi-major axis) > 1.0 AU; q (perihelion) < 1.017 AU"
        }
    },
    "is_sentry_object": false
}